{
  "type": "FeatureCollection",
  "features": [
    {
      "type": "Feature",
      "properties": {
        "norad_id": 28890,
        "name": "BEIJING 1",
        "group": "dmc",
        "lat": -26.340893953238027,
        "lon": -72.21128816565067,
        "alt_km": 682.4146171956936,
        "timestamp": "2025-12-10T09:57:44.370913+00:00",
        "meta_object_name": "BEIJING 1",
        "meta_object_id": "2005-043A",
        "meta_epoch": "2025-12-10T04:05:57.896736",
        "meta_mean_motion": 14.63361209,
        "meta_eccentricity": 0.001516,
        "meta_inclination": 98.2658,
        "meta_ra_of_asc_node": 111.6714,
        "meta_arg_of_pericenter": 148.8906,
        "meta_mean_anomaly": 211.3197,
        "meta_ephemeris_type": 0,
        "meta_classification_type": "U",
        "meta_norad_cat_id": 28890,
        "meta_element_set_no": 999,
        "meta_rev_at_epoch": 7300,
        "meta_bstar": 7.8387e-05,
        "meta_mean_motion_dot": 3.57e-06,
        "meta_mean_motion_ddot": 0,
        "tle_line1": "1 28890U 05043A   25344.17080899  .00000357  00000+0  78387-4 0  9990",
        "tle_line2": "2 28890  98.2658 111.6714 0015160 148.8906 211.3197 14.63361209 73006"
      },
      "geometry": {
        "type": "Point",
        "coordinates": [
          -72.21128816565067,
          -26.340893953238027
        ]
      }
    },
    {
      "type": "Feature",
      "properties": {
        "norad_id": 33320,
        "name": "HUANJING 1A (HJ-1A)",
        "group": "dmc",
        "lat": 65.43844541685144,
        "lon": -44.30221182031967,
        "alt_km": 599.3577086988616,
        "timestamp": "2025-12-10T09:57:44.370936+00:00",
        "meta_object_name": "HUANJING 1A (HJ-1A)",
        "meta_object_id": "2008-041A",
        "meta_epoch": "2025-12-10T04:48:27.363744",
        "meta_mean_motion": 14.83382341,
        "meta_eccentricity": 0.0020373,
        "meta_inclination": 97.6542,
        "meta_ra_of_asc_node": 332.6049,
        "meta_arg_of_pericenter": 42.4277,
        "meta_mean_anomaly": 317.8508,
        "meta_ephemeris_type": 0,
        "meta_classification_type": "U",
        "meta_norad_cat_id": 33320,
        "meta_element_set_no": 999,
        "meta_rev_at_epoch": 93038,
        "meta_bstar": 0.00035723,
        "meta_mean_motion_dot": 2.889e-05,
        "meta_mean_motion_ddot": 0,
        "tle_line1": "1 33320U 08041A   25344.20031671  .00002889  00000+0  35723-3 0  9991",
        "tle_line2": "2 33320  97.6542 332.6049 0020373  42.4277 317.8508 14.83382341930386"
      },
      "geometry": {
        "type": "Point",
        "coordinates": [
          -44.30221182031967,
          65.43844541685144
        ]
      }
    },
    {
      "type": "Feature",
      "properties": {
        "norad_id": 33321,
        "name": "HUANJING 1B (HJ-1B)",
        "group": "dmc",
        "lat": -66.61369365378404,
        "lon": -5.403613863268728,
        "alt_km": 651.0745124037549,
        "timestamp": "2025-12-10T09:57:44.370950+00:00",
        "meta_object_name": "HUANJING 1B (HJ-1B)",
        "meta_object_id": "2008-041B",
        "meta_epoch": "2025-12-10T03:47:26.275200",
        "meta_mean_motion": 14.82811819,
        "meta_eccentricity": 0.003829,
        "meta_inclination": 97.64,
        "meta_ra_of_asc_node": 336.2679,
        "meta_arg_of_pericenter": 83.8034,
        "meta_mean_anomaly": 276.754,
        "meta_ephemeris_type": 0,
        "meta_classification_type": "U",
        "meta_norad_cat_id": 33321,
        "meta_element_set_no": 999,
        "meta_rev_at_epoch": 93039,
        "meta_bstar": 0.0002809,
        "meta_mean_motion_dot": 2.25e-05,
        "meta_mean_motion_ddot": 0,
        "tle_line1": "1 33321U 08041B   25344.15794300  .00002250  00000+0  28090-3 0  9992",
        "tle_line2": "2 33321  97.6400 336.2679 0038290  83.8034 276.7540 14.82811819930392"
      },
      "geometry": {
        "type": "Point",
        "coordinates": [
          -5.403613863268728,
          -66.61369365378404
        ]
      }
    },
    {
      "type": "Feature",
      "properties": {
        "norad_id": 33446,
        "name": "YAOGAN-4",
        "group": "dmc",
        "lat": -24.89815872876287,
        "lon": 90.83331757780283,
        "alt_km": 632.2395419081722,
        "timestamp": "2025-12-10T09:57:44.370962+00:00",
        "meta_object_name": "YAOGAN-4",
        "meta_object_id": "2008-061A",
        "meta_epoch": "2025-12-09T18:27:44.192736",
        "meta_mean_motion": 14.82669066,
        "meta_eccentricity": 0.0013834,
        "meta_inclination": 97.918,
        "meta_ra_of_asc_node": 273.8977,
        "meta_arg_of_pericenter": 333.4194,
        "meta_mean_anomaly": 26.6309,
        "meta_ephemeris_type": 0,
        "meta_classification_type": "U",
        "meta_norad_cat_id": 33446,
        "meta_element_set_no": 999,
        "meta_rev_at_epoch": 91759,
        "meta_bstar": 0.000361,
        "meta_mean_motion_dot": 2.862e-05,
        "meta_mean_motion_ddot": 0,
        "tle_line1": "1 33446U 08061A   25343.76926149  .00002862  00000+0  36100-3 0  9996",
        "tle_line2": "2 33446  97.9180 273.8977 0013834 333.4194  26.6309 14.82669066917590"
      },
      "geometry": {
        "type": "Point",
        "coordinates": [
          90.83331757780283,
          -24.89815872876287
        ]
      }
    },
    {
      "type": "Feature",
      "properties": {
        "norad_id": 35681,
        "name": "DEIMOS-1",
        "group": "dmc",
        "lat": 39.05845956331968,
        "lon": 138.8107734140706,
        "alt_km": 640.9815098252166,
        "timestamp": "2025-12-10T09:57:44.370973+00:00",
        "meta_object_name": "DEIMOS-1",
        "meta_object_id": "2009-041A",
        "meta_epoch": "2025-12-10T04:53:57.950880",
        "meta_mean_motion": 14.74944946,
        "meta_eccentricity": 0.000275,
        "meta_inclination": 97.7148,
        "meta_ra_of_asc_node": 144.9252,
        "meta_arg_of_pericenter": 83.5292,
        "meta_mean_anomaly": 276.6231,
        "meta_ephemeris_type": 0,
        "meta_classification_type": "U",
        "meta_norad_cat_id": 35681,
        "meta_element_set_no": 999,
        "meta_rev_at_epoch": 87902,
        "meta_bstar": 0.0001255,
        "meta_mean_motion_dot": 7.96e-06,
        "meta_mean_motion_ddot": 0,
        "tle_line1": "1 35681U 09041A   25344.20414295  .00000796  00000+0  12550-3 0  9999",
        "tle_line2": "2 35681  97.7148 144.9252 0002750  83.5292 276.6231 14.74944946879026"
      },
      "geometry": {
        "type": "Point",
        "coordinates": [
          138.8107734140706,
          39.05845956331968
        ]
      }
    },
    {
      "type": "Feature",
      "properties": {
        "norad_id": 35683,
        "name": "UK-DMC 2",
        "group": "dmc",
        "lat": 48.34929358721793,
        "lon": 110.45208102071159,
        "alt_km": 638.225170527754,
        "timestamp": "2025-12-10T09:57:44.370984+00:00",
        "meta_object_name": "UK-DMC 2",
        "meta_object_id": "2009-041C",
        "meta_epoch": "2025-12-10T04:51:32.085216",
        "meta_mean_motion": 14.75611276,
        "meta_eccentricity": 0.0001396,
        "meta_inclination": 97.8565,
        "meta_ra_of_asc_node": 119.1766,
        "meta_arg_of_pericenter": 97.1544,
        "meta_mean_anomaly": 262.9825,
        "meta_ephemeris_type": 0,
        "meta_classification_type": "U",
        "meta_norad_cat_id": 35683,
        "meta_element_set_no": 999,
        "meta_rev_at_epoch": 87869,
        "meta_bstar": 0.00018655,
        "meta_mean_motion_dot": 1.224e-05,
        "meta_mean_motion_ddot": 0,
        "tle_line1": "1 35683U 09041C   25344.20245469  .00001224  00000+0  18655-3 0  9995",
        "tle_line2": "2 35683  97.8565 119.1766 0001396  97.1544 262.9825 14.75611276878699"
      },
      "geometry": {
        "type": "Point",
        "coordinates": [
          110.45208102071159,
          48.34929358721793
        ]
      }
    },
    {
      "type": "Feature",
      "properties": {
        "norad_id": 40715,
        "name": "DMC3-FM1",
        "group": "dmc",
        "lat": 15.793985034758283,
        "lon": -150.49237110098534,
        "alt_km": 610.5786663944991,
        "timestamp": "2025-12-10T09:57:44.370995+00:00",
        "meta_object_name": "DMC3-FM1",
        "meta_object_id": "2015-032A",
        "meta_epoch": "2025-12-10T05:02:26.827872",
        "meta_mean_motion": 14.85435412,
        "meta_eccentricity": 0.000484,
        "meta_inclination": 97.669,
        "meta_ra_of_asc_node": 211.4944,
        "meta_arg_of_pericenter": 332.006,
        "meta_mean_anomaly": 28.0894,
        "meta_ephemeris_type": 0,
        "meta_classification_type": "U",
        "meta_norad_cat_id": 40715,
        "meta_element_set_no": 999,
        "meta_rev_at_epoch": 56185,
        "meta_bstar": 0.00019253,
        "meta_mean_motion_dot": 1.608e-05,
        "meta_mean_motion_ddot": 0,
        "tle_line1": "1 40715U 15032A   25344.21003273  .00001608  00000+0  19253-3 0  9991",
        "tle_line2": "2 40715  97.6690 211.4944 0004840 332.0060  28.0894 14.85435412561854"
      },
      "geometry": {
        "type": "Point",
        "coordinates": [
          -150.49237110098534,
          15.793985034758283
        ]
      }
    },
    {
      "type": "Feature",
      "properties": {
        "norad_id": 40716,
        "name": "DMC3-FM2",
        "group": "dmc",
        "lat": -73.840441231841,
        "lon": 5.400321268333697,
        "alt_km": 618.8594079619234,
        "timestamp": "2025-12-10T09:57:44.371005+00:00",
        "meta_object_name": "DMC3-FM2",
        "meta_object_id": "2015-032B",
        "meta_epoch": "2025-12-10T03:57:50.740704",
        "meta_mean_motion": 14.85433048,
        "meta_eccentricity": 0.0005583,
        "meta_inclination": 97.6746,
        "meta_ra_of_asc_node": 212.8933,
        "meta_arg_of_pericenter": 336.3824,
        "meta_mean_anomaly": 23.7135,
        "meta_ephemeris_type": 0,
        "meta_classification_type": "U",
        "meta_norad_cat_id": 40716,
        "meta_element_set_no": 999,
        "meta_rev_at_epoch": 56184,
        "meta_bstar": 7.2659e-05,
        "meta_mean_motion_dot": 5.75e-06,
        "meta_mean_motion_ddot": 0,
        "tle_line1": "1 40716U 15032B   25344.16517061  .00000575  00000+0  72659-4 0  9993",
        "tle_line2": "2 40716  97.6746 212.8933 0005583 336.3824  23.7135 14.85433048561842"
      },
      "geometry": {
        "type": "Point",
        "coordinates": [
          5.400321268333697,
          -73.840441231841
        ]
      }
    },
    {
      "type": "Feature",
      "properties": {
        "norad_id": 40717,
        "name": "DMC3-FM3",
        "group": "dmc",
        "lat": 39.17643768986609,
        "lon": 41.078606310701865,
        "alt_km": 612.6062684624612,
        "timestamp": "2025-12-10T09:57:44.371016+00:00",
        "meta_object_name": "DMC3-FM3",
        "meta_object_id": "2015-032C",
        "meta_epoch": "2025-12-10T04:28:57.525024",
        "meta_mean_motion": 14.85423178,
        "meta_eccentricity": 0.0004924,
        "meta_inclination": 97.68,
        "meta_ra_of_asc_node": 214.5452,
        "meta_arg_of_pericenter": 337.9016,
        "meta_mean_anomaly": 22.1986,
        "meta_ephemeris_type": 0,
        "meta_classification_type": "U",
        "meta_norad_cat_id": 40717,
        "meta_element_set_no": 999,
        "meta_rev_at_epoch": 56185,
        "meta_bstar": 9.9959e-05,
        "meta_mean_motion_dot": 8.1e-06,
        "meta_mean_motion_ddot": 0,
        "tle_line1": "1 40717U 15032C   25344.18677691  .00000810  00000+0  99959-4 0  9996",
        "tle_line2": "2 40717  97.6800 214.5452 0004924 337.9016  22.1986 14.85423178561858"
      },
      "geometry": {
        "type": "Point",
        "coordinates": [
          41.078606310701865,
          39.17643768986609
        ]
      }
    }
  ]
}